STARLINK-11115 [DTC]    
1 60305U 24133E   25292.02167620 -.00001136  00000+0 -45313-5 0  9994
2 60305  53.1577 124.5880 0000712 103.8804 256.2293 15.69698550 71489
STARLINK-11109 [DTC]    
1 60306U 24133F   25292.14414074 -.00004338  00000+0 -31001-4 0  9991
2 60306  53.1583 123.9284 0001509  53.4312 306.6844 15.69676688 71500
STARLINK-11223 [DTC]    
1 60307U 24133G   25292.13430721 -.00013837  00000+0 -10962-3 0  9994
2 60307  53.1564 123.8625 0001599  57.1874 302.9298 15.69689257 71509
STARLINK-11192 [DTC]    
1 60308U 24133H   25292.26655179 -.00000813  00000+0 -18613-5 0  9998
2 60308  53.1582 123.2679 0000381 128.6874 231.4178 15.69698448 71522
STARLINK-11213 [DTC]    
1 60309U 24133J   25292.25673336 -.00000628  00000+0 -33081-6 0  9994
2 60309  53.1582 123.2018 0000588 149.4618 210.6435 15.69710066 71522
STARLINK-11200 [DTC]    
1 60310U 24133K   25292.25183458  .00001504  00000+0  17275-4 0  9994
2 60310  53.1565 123.1688 0001447 101.0640 259.0541 15.69708301 71525
STARLINK-11206 [DTC]    
1 60312U 24133M   25292.05110366  .00066627  00000+0  54907-3 0  9991
2 60312  53.1559 124.7775 0000464 164.8119 195.2913 15.69767770 71484
STARLINK-11205 [DTC]    
1 60313U 24133N   25292.23721835  .00000135  00000+0  59766-5 0  9993
2 60313  53.1582 123.8036 0001549  97.2217 262.8977 15.69710167 71517
STARLINK-32191          
1 60314U 24133P   25292.16065164  .00004822  00000+0  17502-3 0  9999
2 60314  53.1613 234.3009 0001097 107.2312 252.8809 15.30163369 69971
STARLINK-32194          
1 60315U 24133Q   25292.11012797 -.00006159  00000+0 -19604-3 0  9991
2 60315  53.1598 234.7005 0001352 103.3796 256.7356 15.30190866 69962
STARLINK-32192          
1 60316U 24133R   25292.13849388 -.00002287  00000+0 -65151-4 0  9995
2 60316  53.1612 234.1703 0001036  81.8323 278.2795 15.30188745 70066
STARLINK-32189          
1 60317U 24133S   25292.10799185 -.00000637  00000+0 -93817-5 0  9990
2 60317  53.1604 234.6852 0001286  96.2751 263.8397 15.30201713 70058
STARLINK-32190          
1 60318U 24133T   25292.22911555 -.00003377  00000+0 -10191-3 0  9997
2 60318  53.1595 234.0180 0000964  96.7647 263.3463 15.30208933 69987
STARLINK-32182          
1 60319U 24133U   25292.10905251 -.00001014  00000+0 -22126-4 0  9999
2 60319  53.1601 234.6937 0001470  98.5823 261.5344 15.30194280 69966
STARLINK-32199          
1 60320U 24133V   25292.16697757 -.00000330  00000+0  97081-6 0  9999
2 60320  53.1605 234.3417 0001383  92.5047 267.6113 15.30195732 69972
STARLINK-32198          
1 60321U 24133W   25292.11115620 -.00000056  00000+0  10234-4 0  9997
2 60321  53.1594 234.7029 0001181  93.7692 266.3443 15.30200274 70059
