[{"OBJECT_NAME":"STARLINK-11115 [DTC]","OBJECT_ID":"2024-133E","EPOCH":"2025-10-19T00:31:12.823680","MEAN_MOTION":15.6969855,"ECCENTRICITY":7.12e-5,"INCLINATION":53.1577,"RA_OF_ASC_NODE":124.588,"ARG_OF_PERICENTER":103.8804,"MEAN_ANOMALY":256.2293,"EPHEMERIS_TYPE":0,"CLASSIFICATION_TYPE":"U","NORAD_CAT_ID":60305,"ELEMENT_SET_NO":999,"REV_AT_EPOCH":7148,"BSTAR":-4.531254e-6,"MEAN_MOTION_DOT":-1.136e-5,"MEAN_MOTION_DDOT":0},{"OBJECT_NAME":"STARLINK-11109 [DTC]","OBJECT_ID":"2024-133F","EPOCH":"2025-10-19T03:27:33.759936","MEAN_MOTION":15.69676688,"ECCENTRICITY":0.00015098,"INCLINATION":53.1583,"RA_OF_ASC_NODE":123.9284,"ARG_OF_PERICENTER":53.4312,"MEAN_ANOMALY":306.6844,"EPHEMERIS_TYPE":0,"CLASSIFICATION_TYPE":"U","NORAD_CAT_ID":60306,"ELEMENT_SET_NO":999,"REV_AT_EPOCH":7150,"BSTAR":-3.1000583e-5,"MEAN_MOTION_DOT":-4.338e-5,"MEAN_MOTION_DDOT":0},{"OBJECT_NAME":"STARLINK-11223 [DTC]","OBJECT_ID":"2024-133G","EPOCH":"2025-10-19T03:13:24.142944","MEAN_MOTION":15.69689257,"ECCENTRICITY":0.00015992,"INCLINATION":53.1564,"RA_OF_ASC_NODE":123.8625,"ARG_OF_PERICENTER":57.1874,"MEAN_ANOMALY":302.9298,"EPHEMERIS_TYPE":0,"CLASSIFICATION_TYPE":"U","NORAD_CAT_ID":60307,"ELEMENT_SET_NO":999,"REV_AT_EPOCH":7150,"BSTAR":-0.00010962412,"MEAN_MOTION_DOT":-0.00013837,"MEAN_MOTION_DDOT":0},{"OBJECT_NAME":"STARLINK-11192 [DTC]","OBJECT_ID":"2024-133H","EPOCH":"2025-10-19T06:23:50.074656","MEAN_MOTION":15.69698448,"ECCENTRICITY":3.814e-5,"INCLINATION":53.1582,"RA_OF_ASC_NODE":123.2679,"ARG_OF_PERICENTER":128.6874,"MEAN_ANOMALY":231.4178,"EPHEMERIS_TYPE":0,"CLASSIFICATION_TYPE":"U","NORAD_CAT_ID":60308,"ELEMENT_SET_NO":999,"REV_AT_EPOCH":7152,"BSTAR":-1.861302e-6,"MEAN_MOTION_DOT":-8.13e-6,"MEAN_MOTION_DDOT":0},{"OBJECT_NAME":"STARLINK-11213 [DTC]","OBJECT_ID":"2024-133J","EPOCH":"2025-10-19T06:09:41.762304","MEAN_MOTION":15.69710066,"ECCENTRICITY":5.887e-5,"INCLINATION":53.1582,"RA_OF_ASC_NODE":123.2018,"ARG_OF_PERICENTER":149.4618,"MEAN_ANOMALY":210.6435,"EPHEMERIS_TYPE":0,"CLASSIFICATION_TYPE":"U","NORAD_CAT_ID":60309,"ELEMENT_SET_NO":999,"REV_AT_EPOCH":7152,"BSTAR":-3.30813e-7,"MEAN_MOTION_DOT":-6.28e-6,"MEAN_MOTION_DDOT":0},{"OBJECT_NAME":"STARLINK-11200 [DTC]","OBJECT_ID":"2024-133K","EPOCH":"2025-10-19T06:02:38.507712","MEAN_MOTION":15.69708301,"ECCENTRICITY":0.00014472,"INCLINATION":53.1565,"RA_OF_ASC_NODE":123.1688,"ARG_OF_PERICENTER":101.064,"MEAN_ANOMALY":259.0541,"EPHEMERIS_TYPE":0,"CLASSIFICATION_TYPE":"U","NORAD_CAT_ID":60310,"ELEMENT_SET_NO":999,"REV_AT_EPOCH":7152,"BSTAR":1.7275165e-5,"MEAN_MOTION_DOT":1.504e-5,"MEAN_MOTION_DDOT":0},{"OBJECT_NAME":"STARLINK-11206 [DTC]","OBJECT_ID":"2024-133M","EPOCH":"2025-10-19T01:13:35.356224","MEAN_MOTION":15.6976777,"ECCENTRICITY":4.646e-5,"INCLINATION":53.1559,"RA_OF_ASC_NODE":124.7775,"ARG_OF_PERICENTER":164.8119,"MEAN_ANOMALY":195.2913,"EPHEMERIS_TYPE":0,"CLASSIFICATION_TYPE":"U","NORAD_CAT_ID":60312,"ELEMENT_SET_NO":999,"REV_AT_EPOCH":7148,"BSTAR":0.00054907209,"MEAN_MOTION_DOT":0.00066627,"MEAN_MOTION_DDOT":0},{"OBJECT_NAME":"STARLINK-11205 [DTC]","OBJECT_ID":"2024-133N","EPOCH":"2025-10-19T05:41:35.665440","MEAN_MOTION":15.69710167,"ECCENTRICITY":0.00015493,"INCLINATION":53.1582,"RA_OF_ASC_NODE":123.8036,"ARG_OF_PERICENTER":97.2217,"MEAN_ANOMALY":262.8977,"EPHEMERIS_TYPE":0,"CLASSIFICATION_TYPE":"U","NORAD_CAT_ID":60313,"ELEMENT_SET_NO":999,"REV_AT_EPOCH":7151,"BSTAR":5.976578e-6,"MEAN_MOTION_DOT":1.35e-6,"MEAN_MOTION_DDOT":0},{"OBJECT_NAME":"STARLINK-32191","OBJECT_ID":"2024-133P","EPOCH":"2025-10-19T03:51:20.301696","MEAN_MOTION":15.30163369,"ECCENTRICITY":0.00010976,"INCLINATION":53.1613,"RA_OF_ASC_NODE":234.3009,"ARG_OF_PERICENTER":107.2312,"MEAN_ANOMALY":252.8809,"EPHEMERIS_TYPE":0,"CLASSIFICATION_TYPE":"U","NORAD_CAT_ID":60314,"ELEMENT_SET_NO":999,"REV_AT_EPOCH":6997,"BSTAR":0.00017501729,"MEAN_MOTION_DOT":4.822e-5,"MEAN_MOTION_DDOT":0},{"OBJECT_NAME":"STARLINK-32194","OBJECT_ID":"2024-133Q","EPOCH":"2025-10-19T02:38:35.056608","MEAN_MOTION":15.30190866,"ECCENTRICITY":0.00013524,"INCLINATION":53.1598,"RA_OF_ASC_NODE":234.7005,"ARG_OF_PERICENTER":103.3796,"MEAN_ANOMALY":256.7356,"EPHEMERIS_TYPE":0,"CLASSIFICATION_TYPE":"U","NORAD_CAT_ID":60315,"ELEMENT_SET_NO":999,"REV_AT_EPOCH":6996,"BSTAR":-0.00019604405,"MEAN_MOTION_DOT":-6.159e-5,"MEAN_MOTION_DDOT":0},{"OBJECT_NAME":"STARLINK-32192","OBJECT_ID":"2024-133R","EPOCH":"2025-10-19T03:19:25.871232","MEAN_MOTION":15.30188745,"ECCENTRICITY":0.00010368,"INCLINATION":53.1612,"RA_OF_ASC_NODE":234.1703,"ARG_OF_PERICENTER":81.8323,"MEAN_ANOMALY":278.2795,"EPHEMERIS_TYPE":0,"CLASSIFICATION_TYPE":"U","NORAD_CAT_ID":60316,"ELEMENT_SET_NO":999,"REV_AT_EPOCH":7006,"BSTAR":-6.5151043e-5,"MEAN_MOTION_DOT":-2.287e-5,"MEAN_MOTION_DDOT":0},{"OBJECT_NAME":"STARLINK-32189","OBJECT_ID":"2024-133S","EPOCH":"2025-10-19T02:35:30.495840","MEAN_MOTION":15.30201713,"ECCENTRICITY":0.00012866,"INCLINATION":53.1604,"RA_OF_ASC_NODE":234.6852,"ARG_OF_PERICENTER":96.2751,"MEAN_ANOMALY":263.8397,"EPHEMERIS_TYPE":0,"CLASSIFICATION_TYPE":"U","NORAD_CAT_ID":60317,"ELEMENT_SET_NO":999,"REV_AT_EPOCH":7005,"BSTAR":-9.381688e-6,"MEAN_MOTION_DOT":-6.37e-6,"MEAN_MOTION_DDOT":0},{"OBJECT_NAME":"STARLINK-32190","OBJECT_ID":"2024-133T","EPOCH":"2025-10-19T05:29:55.583520","MEAN_MOTION":15.30208933,"ECCENTRICITY":9.642e-5,"INCLINATION":53.1595,"RA_OF_ASC_NODE":234.018,"ARG_OF_PERICENTER":96.7647,"MEAN_ANOMALY":263.3463,"EPHEMERIS_TYPE":0,"CLASSIFICATION_TYPE":"U","NORAD_CAT_ID":60318,"ELEMENT_SET_NO":999,"REV_AT_EPOCH":6998,"BSTAR":-0.00010190714,"MEAN_MOTION_DOT":-3.377e-5,"MEAN_MOTION_DDOT":0},{"OBJECT_NAME":"STARLINK-32182","OBJECT_ID":"2024-133U","EPOCH":"2025-10-19T02:37:02.136864","MEAN_MOTION":15.3019428,"ECCENTRICITY":0.00014707,"INCLINATION":53.1601,"RA_OF_ASC_NODE":234.6937,"ARG_OF_PERICENTER":98.5823,"MEAN_ANOMALY":261.5344,"EPHEMERIS_TYPE":0,"CLASSIFICATION_TYPE":"U","NORAD_CAT_ID":60319,"ELEMENT_SET_NO":999,"REV_AT_EPOCH":6996,"BSTAR":-2.2125505e-5,"MEAN_MOTION_DOT":-1.014e-5,"MEAN_MOTION_DDOT":0},{"OBJECT_NAME":"STARLINK-32199","OBJECT_ID":"2024-133V","EPOCH":"2025-10-19T04:00:26.862048","MEAN_MOTION":15.30195732,"ECCENTRICITY":0.00013834,"INCLINATION":53.1605,"RA_OF_ASC_NODE":234.3417,"ARG_OF_PERICENTER":92.5047,"MEAN_ANOMALY":267.6113,"EPHEMERIS_TYPE":0,"CLASSIFICATION_TYPE":"U","NORAD_CAT_ID":60320,"ELEMENT_SET_NO":999,"REV_AT_EPOCH":6997,"BSTAR":9.70806e-7,"MEAN_MOTION_DOT":-3.3e-6,"MEAN_MOTION_DDOT":0},{"OBJECT_NAME":"STARLINK-32198","OBJECT_ID":"2024-133W","EPOCH":"2025-10-19T02:40:03.895680","MEAN_MOTION":15.30200274,"ECCENTRICITY":0.00011818,"INCLINATION":53.1594,"RA_OF_ASC_NODE":234.7029,"ARG_OF_PERICENTER":93.7692,"MEAN_ANOMALY":266.3443,"EPHEMERIS_TYPE":0,"CLASSIFICATION_TYPE":"U","NORAD_CAT_ID":60321,"ELEMENT_SET_NO":999,"REV_AT_EPOCH":7005,"BSTAR":1.0234362e-5,"MEAN_MOTION_DOT":-5.6e-7,"MEAN_MOTION_DDOT":0}]
